{"type": "FeatureCollection", "features": [ {"type": "Feature", "properties": {"norad_id": 31341, "name": "FENGYUN 1C DEB", "group": "fengyun-1c-debris", "lat": -68.19022893091396, "lon": 53.68642751364059, "alt_km": 700.2143550911414, "timestamp": "2025-12-13T10:41:26.048165+00:00", "meta": {"OBJECT_NAME": "FENGYUN 1C DEB", "OBJECT_ID": "1999-025BQV", "EPOCH": "2025-12-12T20:57:20.890944", "MEAN_MOTION": 14.53325722, "ECCENTRICITY": 0.00530548, "INCLINATION": 99.5558, "RA_OF_ASC_NODE": 28.1396, "ARG_OF_PERICENTER": 346.3377, "MEAN_ANOMALY": 191.4193, "EPHEMERIS_TYPE": 0, "CLASSIFICATION_TYPE": "U", "NORAD_CAT_ID": 31341, "ELEMENT_SET_NO": 999, "REV_AT_EPOCH": 97620, "BSTAR": 0.0019001293, "MEAN_MOTION_DOT": 7.992e-05, "MEAN_MOTION_DDOT": 0}, "tle": {"line1": "1 31341U 99025BQV 25346.87315846  .00007992  00000+0  19001-2 0  9998", "line2": "2 31341  99.5558  28.1396 0053054 346.3377 191.4193 14.53325722976200"}}, "geometry": {"type": "Point", "coordinates": [53.68642751364059, -68.19022893091396]}}, {"type": "Feature", "properties": {"norad_id": 31342, "name": "FENGYUN 1C DEB", "group": "fengyun-1c-debris", "lat": 14.62825972237321, "lon": -58.62399096244117, "alt_km": 843.5924122743809, "timestamp": "2025-12-13T10:41:26.048175+00:00", "meta": {"OBJECT_NAME": "FENGYUN 1C DEB", "OBJECT_ID": "1999-025BQW", "EPOCH": "2025-12-12T02:51:51.280992", "MEAN_MOTION": 14.36767896, "ECCENTRICITY": 0.01114558, "INCLINATION": 98.9351, "RA_OF_ASC_NODE": 302.3535, "ARG_OF_PERICENTER": 221.1783, "MEAN_ANOMALY": 138.0954, "EPHEMERIS_TYPE": 0, "CLASSIFICATION_TYPE": "U", "NORAD_CAT_ID": 31342, "ELEMENT_SET_NO": 999, "REV_AT_EPOCH": 97882, "BSTAR": 0.00020820544, "MEAN_MOTION_DOT": 6.09e-06, "MEAN_MOTION_DDOT": 0}, "tle": {"line1": "1 31342U 99025BQW 25346.11934353  .00000609  00000+0  20821-3 0  9997", "line2": "2 31342  98.9351 302.3535 0111455 221.1783 138.0954 14.36767896978823"}}, "geometry": {"type": "Point", "coordinates": [-58.62399096244117, 14.62825972237321]}}, {"type": "Feature", "properties": {"norad_id": 31346, "name": "FENGYUN 1C DEB", "group": "fengyun-1c-debris", "lat": 23.184404456551626, "lon": -49.3121577251816, "alt_km": 457.4920035497653, "timestamp": "2025-12-13T10:41:26.048185+00:00", "meta": {"OBJECT_NAME": "FENGYUN 1C DEB", "OBJECT_ID": "1999-025BRA", "EPOCH": "2025-12-12T15:31:00.934176", "MEAN_MOTION": 15.10919486, "ECCENTRICITY": 0.01108064, "INCLINATION": 98.8657, "RA_OF_ASC_NODE": 313.596, "ARG_OF_PERICENTER": 15.9381, "MEAN_ANOMALY": 344.5286, "EPHEMERIS_TYPE": 0, "CLASSIFICATION_TYPE": "U", "NORAD_CAT_ID": 31346, "ELEMENT_SET_NO": 999, "REV_AT_EPOCH": 99494, "BSTAR": 0.0016218279, "MEAN_MOTION_DOT": 0.00031343, "MEAN_MOTION_DDOT": 0}, "tle": {"line1": "1 31346U 99025BRA 25346.64653859  .00031343  00000+0  16218-2 0  9991", "line2": "2 31346  98.8657 313.5960 0110806  15.9381 344.5286 15.10919486994943"}}, "geometry": {"type": "Point", "coordinates": [-49.3121577251816, 23.184404456551626]}}, {"type": "Feature", "properties": {"norad_id": 31348, "name": "FENGYUN 1C DEB", "group": "fengyun-1c-debris", "lat": -29.659210273038767, "lon": 113.21484361231634, "alt_km": 805.1497889096818, "timestamp": "2025-12-13T10:41:26.048199+00:00", "meta": {"OBJECT_NAME": "FENGYUN 1C DEB", "OBJECT_ID": "1999-025BRC", "EPOCH": "2025-12-08T08:10:46.398720", "MEAN_MOTION": 14.33993846, "ECCENTRICITY": 0.00352025, "INCLINATION": 99.1191, "RA_OF_ASC_NODE": 293.0834, "ARG_OF_PERICENTER": 78.0004, "MEAN_ANOMALY": 74.0816, "EPHEMERIS_TYPE": 0, "CLASSIFICATION_TYPE": "U", "NORAD_CAT_ID": 31348, "ELEMENT_SET_NO": 999, "REV_AT_EPOCH": 96186, "BSTAR": 0.0019749425, "MEAN_MOTION_DOT": 5.507e-05, "MEAN_MOTION_DDOT": 0}, "tle": {"line1": "1 31348U 99025BRC 25342.34081480  .00005507  00000+0  19749-2 0  9996", "line2": "2 31348  99.1191 293.0834 0035202  78.0004  74.0816 14.33993846961867"}}, "geometry": {"type": "Point", "coordinates": [113.21484361231634, -29.659210273038767]}}, {"type": "Feature", "properties": {"norad_id": 31350, "name": "FENGYUN 1C DEB", "group": "fengyun-1c-debris", "lat": 65.01320962442566, "lon": -0.7235613383903741, "alt_km": 722.093293997943, "timestamp": "2025-12-13T10:41:26.048210+00:00", "meta": {"OBJECT_NAME": "FENGYUN 1C DEB", "OBJECT_ID": "1999-025BRE", "EPOCH": "2025-12-08T18:02:03.920064", "MEAN_MOTION": 14.34830277, "ECCENTRICITY": 0.00667483, "INCLINATION": 98.9604, "RA_OF_ASC_NODE": 154.6193, "ARG_OF_PERICENTER": 136.9079, "MEAN_ANOMALY": 223.7357, "EPHEMERIS_TYPE": 0, "CLASSIFICATION_TYPE": "U", "NORAD_CAT_ID": 31350, "ELEMENT_SET_NO": 999, "REV_AT_EPOCH": 70196, "BSTAR": 0.0010632143, "MEAN_MOTION_DOT": 3.049e-05, "MEAN_MOTION_DDOT": 0}, "tle": {"line1": "1 31350U 99025BRE 25342.75143426  .00003049  00000+0  10632-2 0  9994", "line2": "2 31350  98.9604 154.6193 0066748 136.9079 223.7357 14.34830277701966"}}, "geometry": {"type": "Point", "coordinates": [-0.7235613383903741, 65.01320962442566]}}, {"type": "Feature", "properties": {"norad_id": 31351, "name": "FENGYUN 1C DEB", "group": "fengyun-1c-debris", "lat": -81.19156108499143, "lon": 66.76907436335259, "alt_km": 928.6851040121392, "timestamp": "2025-12-13T10:41:26.048220+00:00", "meta": {"OBJECT_NAME": "FENGYUN 1C DEB", "OBJECT_ID": "1999-025BRF", "EPOCH": "2025-12-05T22:12:04.612896", "MEAN_MOTION": 14.06922487, "ECCENTRICITY": 0.00937925, "INCLINATION": 98.7943, "RA_OF_ASC_NODE": 326.89, "ARG_OF_PERICENTER": 70.3082, "MEAN_ANOMALY": 290.8177, "EPHEMERIS_TYPE": 0, "CLASSIFICATION_TYPE": "U", "NORAD_CAT_ID": 31351, "ELEMENT_SET_NO": 999, "REV_AT_EPOCH": 61279, "BSTAR": 0.00046990462, "MEAN_MOTION_DOT": 7.73e-06, "MEAN_MOTION_DDOT": 0}, "tle": {"line1": "1 31351U 99025BRF 25339.92505339  .00000773  00000+0  46990-3 0  9993", "line2": "2 31351  98.7943 326.8900 0093792  70.3082 290.8177 14.06922487612795"}}, "geometry": {"type": "Point", "coordinates": [66.76907436335259, -81.19156108499143]}}, {"type": "Feature", "properties": {"norad_id": 31353, "name": "FENGYUN 1C DEB", "group": "fengyun-1c-debris", "lat": -4.52188742837771, "lon": 92.01652350031337, "alt_km": 872.6551760431657, "timestamp": "2025-12-13T10:41:26.048230+00:00", "meta": {"OBJECT_NAME": "FENGYUN 1C DEB", "OBJECT_ID": "1999-025BRH", "EPOCH": "2025-12-08T13:58:15.944736", "MEAN_MOTION": 14.29829751, "ECCENTRICITY": 0.0229354, "INCLINATION": 98.9912, "RA_OF_ASC_NODE": 267.7094, "ARG_OF_PERICENTER": 79.5278, "MEAN_ANOMALY": 283.1658, "EPHEMERIS_TYPE": 0, "CLASSIFICATION_TYPE": "U", "NORAD_CAT_ID": 31353, "ELEMENT_SET_NO": 999, "REV_AT_EPOCH": 96525, "BSTAR": 0.00080756, "MEAN_MOTION_DOT": 2.712e-05, "MEAN_MOTION_DDOT": 0}, "tle": {"line1": "1 31353U 99025BRH 25342.58212899  .00002712  00000+0  80756-3 0  9990", "line2": "2 31353  98.9912 267.7094 0229354  79.5278 283.1658 14.29829751965251"}}, "geometry": {"type": "Point", "coordinates": [92.01652350031337, -4.52188742837771]}}, {"type": "Feature", "properties": {"norad_id": 31357, "name": "FENGYUN 1C DEB", "group": "fengyun-1c-debris", "lat": 65.4920280463019, "lon": -0.9867452221402303, "alt_km": 849.3388034310619, "timestamp": "2025-12-13T10:41:26.048240+00:00", "meta": {"OBJECT_NAME": "FENGYUN 1C DEB", "OBJECT_ID": "1999-025BRM", "EPOCH": "2025-12-11T00:57:32.630400", "MEAN_MOTION": 14.18526149, "ECCENTRICITY": 0.00489613, "INCLINATION": 98.6116, "RA_OF_ASC_NODE": 16.0927, "ARG_OF_PERICENTER": 297.6901, "MEAN_ANOMALY": 91.8137, "EPHEMERIS_TYPE": 0, "CLASSIFICATION_TYPE": "U", "NORAD_CAT_ID": 31357, "ELEMENT_SET_NO": 999, "REV_AT_EPOCH": 96680, "BSTAR": 5.636953e-05, "MEAN_MOTION_DOT": 7.5e-07, "MEAN_MOTION_DDOT": 0}, "tle": {"line1": "1 31357U 99025BRM 25345.03996100  .00000075  00000+0  56370-4 0  9997", "line2": "2 31357  98.6116  16.0927 0048961 297.6901  91.8137 14.18526149966808"}}, "geometry": {"type": "Point", "coordinates": [-0.9867452221402303, 65.4920280463019]}}, {"type": "Feature", "properties": {"norad_id": 31358, "name": "FENGYUN 1C DEB", "group": "fengyun-1c-debris", "lat": -41.369454275698885, "lon": 92.7158182054261, "alt_km": 525.8821409009852, "timestamp": "2025-12-13T10:41:26.048252+00:00", "meta": {"OBJECT_NAME": "FENGYUN 1C DEB", "OBJECT_ID": "1999-025BRN", "EPOCH": "2025-12-12T06:50:22.254720", "MEAN_MOTION": 15.18454851, "ECCENTRICITY": 0.00435521, "INCLINATION": 98.9067, "RA_OF_ASC_NODE": 279.2887, "ARG_OF_PERICENTER": 114.9746, "MEAN_ANOMALY": 245.6017, "EPHEMERIS_TYPE": 0, "CLASSIFICATION_TYPE": "U", "NORAD_CAT_ID": 31358, "ELEMENT_SET_NO": 999, "REV_AT_EPOCH": 97563, "BSTAR": 0.0111955, "MEAN_MOTION_DOT": 0.0024375, "MEAN_MOTION_DDOT": 0}, "tle": {"line1": "1 31358U 99025BRN 25346.28497980  .00243750  00000+0  11195-1 0  9990", "line2": "2 31358  98.9067 279.2887 0043552 114.9746 245.6017 15.18454851975632"}}, "geometry": {"type": "Point", "coordinates": [92.7158182054261, -41.369454275698885]}}, {"type": "Feature", "properties": {"norad_id": 31361, "name": "FENGYUN 1C DEB", "group": "fengyun-1c-debris", "lat": -28.52668393880939, "lon": 138.03813811491443, "alt_km": 864.3457458998028, "timestamp": "2025-12-13T10:41:26.048267+00:00", "meta": {"OBJECT_NAME": "FENGYUN 1C DEB", "OBJECT_ID": "1999-025BRR", "EPOCH": "2025-12-10T03:47:55.285728", "MEAN_MOTION": 14.17742789, "ECCENTRICITY": 0.00461797, "INCLINATION": 98.5505, "RA_OF_ASC_NODE": 319.5645, "ARG_OF_PERICENTER": 77.942, "MEAN_ANOMALY": 282.6925, "EPHEMERIS_TYPE": 0, "CLASSIFICATION_TYPE": "U", "NORAD_CAT_ID": 31361, "ELEMENT_SET_NO": 999, "REV_AT_EPOCH": 96527, "BSTAR": 0.00019181193, "MEAN_MOTION_DOT": 3.53e-06, "MEAN_MOTION_DDOT": 0}, "tle": {"line1": "1 31361U 99025BRR 25344.15827877  .00000353  00000+0  19181-3 0  9995", "line2": "2 31361  98.5505 319.5645 0046179  77.9420 282.6925 14.17742789965270"}}, "geometry": {"type": "Point", "coordinates": [138.03813811491443, -28.52668393880939]}}]}